0 DELTA 1 DEB
1 21543U 75052GX  13280.72426042 -.00007878  00000-0 -79977-2 0   764
2 21543 099.9133 195.0865 0150791 311.0328 078.7847 13.71712608 91878
0 DELTA 1 DEB
1 21543U 75052GX  13282.99135596 -.00006781  00000-0 -68827-2 0   771
2 21543 099.9136 197.4291 0150311 305.3125 113.9548 13.71687461 92182
0 DELTA 1 DEB
1 21543U 75052GX  13283.56260427 -.00005790  00000-0  00000+0 0   782
2 21543 099.9131 198.0117 0158462 301.7008 056.9245 13.71682929 89872
0 DELTA 1 DEB
1 21543U 75052GX  13284.01350818 -.00006337  00000-0 -64241-2 0   786
2 21543 099.9078 198.4801 0150962 302.5558 121.5843 13.71689380 92327
0 DELTA 1 DEB
1 21543U 75052GX  13286.70533735 -.00005314  00000-0 -53881-2 0   798
2 21543 099.9094 201.2592 0149537 296.0438 093.6131 13.71672640 92695
0 DELTA 1 DEB
1 21543U 75052GX  13288.02533748 -.00005841  00000-0 -59286-2 0   801
2 21543 099.9103 202.6235 0149619 292.6444 131.8054 13.71652122 92877
0 DELTA 1 DEB
1 21543U 75052GX  13288.26219319 -.00005423  00000-0 -55068-2 0   813
2 21543 099.9095 202.8675 0148484 292.2675 221.1688 13.71658841 92902
0 DELTA 1 DEB
1 21543U 75052GX  13293.70774174 -.00003748  00000-0 -38126-2 0   828
2 21543 099.9094 208.4901 0143084 278.7507 110.6280 13.71637525 93658
0 DELTA 1 DEB
1 21543U 75052GX  13294.60180678 -.00003755  00000-0 -38102-2 0   831
2 21543 099.9086 209.4105 0145623 276.0389 205.8683 13.71628246 93773
